HST                     
1 20580U 90037B   26167.16527473  .00005381  00000+0  16841-3 0  9990
2 20580  28.4719  87.5586 0001852 131.7056 228.3698 15.30736864788415
POLAR                   
1 23802U 96013A   26167.26675754  .00000137  00000+0  00000+0 0  9997
2 23802  79.8528 227.0631 6469542 209.1106  89.7802  1.29846135144846
SWAS                    
1 25560U 98071A   26167.68439370  .00002493  00000+0  16108-3 0  9991
2 25560  69.8949 228.8160 0008656 260.7980  99.2205 15.09624181497193
CXO                     
1 25867U 99040B   26169.37713324  .00000529  00000+0  00000+0 0  9998
2 25867  56.2189 116.5542 7835469 310.3049   0.1821  0.37804062 17322
XMM-NEWTON              
1 25989U 99066A   26169.34668136 -.00000002  00000+0  00000+0 0  9995
2 25989  64.4794 282.9700 4673195  64.9038   0.0897  0.50127427 23010
TERRA                   
1 25994U 99068A   26167.89082471  .00000327  00000+0  75513-4 0  9998
2 25994  97.9457 217.4488 0001555 190.4186 284.6770 14.61102929409564
CLUSTER II-FM7 (SAMBA)  
1 26410U 00041A   26168.13893488  .00013373  00000+0  00000+0 0  9990
2 26410 149.9159  50.9864 9054007 268.1291 359.6411  0.44868040 20307
CLUSTER II-FM8 (TANGO)  
1 26464U 00045B   26166.18671727  .00011728  00000+0  00000+0 0  9998
2 26464 150.1502  51.7537 9056828 268.7236   2.8065  0.44400569 20306
ODIN                    
1 26702U 01007A   26167.64990388  .00151730  00000+0  98033-3 0  9996
2 26702  97.3825 208.5575 0006693 143.1116 217.0611 15.75626602389318
TIMED                   
1 26998U 01055B   26167.60674438  .00000867  00000+0  82250-4 0  9996
2 26998  74.0674 236.1872 0001093 336.2135  23.8998 14.95293752330731
CORIOLIS                
1 27640U 03001A   26167.77439084  .00000073  00000+0  54658-4 0  9998
2 27640  98.7125 174.6654 0013351 210.0344 150.0068 14.19944641214160
SORCE                   
1 27651U 03004A   26167.74107249  .00002150  00000+0  16462-3 0  9993
2 27651  39.9906 264.2238 0016526  45.7417 314.4731 15.03711339271831
MOST                    
1 27843U 03031D   26167.78890478  .00000042  00000+0  39365-4 0  9999
2 27843  98.7045 175.5205 0008725 251.7368 108.2860 14.21322412190656
SCISAT 1                
1 27858U 03036A   26167.75292830  .00000382  00000+0  53520-4 0  9991
2 27858  73.9284 172.2056 0008553 241.9898 118.0413 14.81447169231380
SWIFT                   
1 28485U 04047A   26166.40597521  .00042527  00000+0  35480-3 0  9998
2 28485  20.5516 198.6409 0001619 255.9834 104.0432 15.68175033186589
HINODE (SOLAR-B)        
1 29479U 06041A   26167.77658051  .00000537  00000+0  10069-3 0  9996
2 29479  98.0548 183.9352 0016028 291.1805  68.7687 14.68622529 54816
SHIJIAN-6 02A (SJ-6 02A)
1 29505U 06046A   26167.89369750  .00004134  00000+0  21308-3 0  9994
2 29505  97.6358 208.9576 0004478 124.8985 235.2669 15.16938602 72225
SHIJIAN-6 02B (SJ-6 02B)
1 29506U 06046B   26167.87980652  .00000989  00000+0  81312-4 0  9999
2 29506  97.7155 196.9402 0015355  61.3669 298.9097 15.01376266 70692
FGRST (GLAST)           
1 33053U 08029A   26167.77023670  .00002243  00000+0  76629-4 0  9991
2 33053  25.5803 207.3783 0007748 324.2186  35.7833 15.23945020995778
SDO                     
1 36395U 10005A   26167.50926725 -.00000097  00000+0  00000+0 0  9995
2 36395  34.6508  86.3517 0001708  44.3809 215.2958  1.00269934 60055
CRYOSAT 2               
1 36508U 10013A   26167.87474762  .00000190  00000+0  46326-4 0  9998
2 36508  92.0355 277.2255 0002157  89.4964 270.6490 14.51899063858031
X-SAT                   
1 37389U 11015C   26167.87449898 -.00000064  00000+0 -98995-5 0  9993
2 37389  98.3505 144.9127 0013931 349.5011  10.5876 14.25205739787636
GCOM-W1 (SHIZUKU)       
1 38337U 12025A   26167.75786411  .00000377  00000+0  93602-4 0  9995
2 38337  98.2021 108.3199 0001785  75.2604 344.6172 14.57124312748976
NUSTAR                  
1 38358U 12031A   26167.91668980  .00007228  00000+0  39293-3 0  9990
2 38358   6.0274  36.1555 0007033 107.6444 307.5344 15.08797824  1303
NEOSSAT                 
1 39089U 13009D   26167.79139584  .00000108  00000+0  52216-4 0  9998
2 39089  98.4177 347.8334 0009886 245.1134 114.9025 14.35826267696681
BRITE-AUSTRIA           
1 39091U 13009F   26167.44196029  .00000141  00000+0  62460-4 0  9999
2 39091  98.3994 346.8961 0009125 239.0066 121.0225 14.36541877696949
IRIS                    
1 39197U 13033A   26167.82817655  .00000814  00000+0  99442-4 0  9997
2 39197  97.9329   7.1064 0023570 323.0758  36.8833 14.85884720700323
HISAKI (SPRINT-A)       
1 39253U 13049A   26167.83421073  .00000116  00000+0  71628-4 0  9994
2 39253  29.7184 221.8078 0136865  13.9892 346.4420 13.55544715631377
CASSIOPE                
1 39265U 13055A   26167.83402135  .00042418 -54295-6  46322-3 0  9998
2 39265  80.9148  67.1512 0292810  63.6252 299.4722 15.25158837667611
STSAT-3                 
1 39422U 13066G   26167.84643773  .00002834  00000+0  21624-3 0  9994
2 39422  97.6221 137.7401 0011152  46.0855 314.1289 15.02755522684156
SWARM B                 
1 39451U 13067A   26167.80651044  .00002858  00000+0  10170-3 0  9993
2 39451  87.7437 342.4321 0003281  85.8654 274.2970 15.28549486683188
