OBJECT_NAME,OBJECT_ID,EPOCH,MEAN_MOTION,ECCENTRICITY,INCLINATION,RA_OF_ASC_NODE,ARG_OF_PERICENTER,MEAN_ANOMALY,EPHEMERIS_TYPE,CLASSIFICATION_TYPE,NORAD_CAT_ID,ELEMENT_SET_NO,REV_AT_EPOCH,BSTAR,MEAN_MOTION_DOT,MEAN_MOTION_DDOT
HST,1990-037B,2026-06-16T03:57:59.736672,15.30736864,.00018526,28.4719,87.5586,131.7056,228.3698,0,U,20580,999,78841,.168413E-3,.5381E-4,0
POLAR,1996-013A,2026-06-16T06:24:07.851456,1.29846135,.64695424,79.8528,227.0631,209.1106,89.7802,0,U,23802,999,14484,0,.137E-5,0
SWAS,1998-071A,2026-06-16T16:25:31.615680,15.09624181,.0008656,69.8949,228.8160,260.7980,99.2205,0,U,25560,999,49719,.16108E-3,.2493E-4,0
CXO,1999-040B,2026-06-18T09:03:04.311936,0.37804062,.78354691,56.2189,116.5542,310.3049,0.1821,0,U,25867,999,1732,0,.529E-5,0
XMM-NEWTON,1999-066A,2026-06-18T08:19:13.269504,0.50127427,.46731953,64.4794,282.9700,64.9038,0.0897,0,U,25989,999,2301,0,-.2E-7,0
TERRA,1999-068A,2026-06-16T21:22:47.254944,14.61102929,.0001555,97.9457,217.4488,190.4186,284.6770,0,U,25994,999,40956,.75513E-4,.327E-5,0
CLUSTER II-FM7 (SAMBA),2000-041A,2026-06-17T03:20:03.973632,0.44868040,.9054007,149.9159,50.9864,268.1291,359.6411,0,U,26410,999,2030,0,.13373E-3,0
CLUSTER II-FM8 (TANGO),2000-045B,2026-06-15T04:28:52.372128,0.44400569,.9056828,150.1502,51.7537,268.7236,2.8065,0,U,26464,999,2030,0,.11728E-3,0
ODIN,2001-007A,2026-06-16T15:35:51.695232,15.75626602,.0006693,97.3825,208.5575,143.1116,217.0611,0,U,26702,999,38931,.98033E-3,.15173E-2,0
TIMED,2001-055B,2026-06-16T14:33:42.714432,14.95293752,.0001093,74.0674,236.1872,336.2135,23.8998,0,U,26998,999,33073,.8225E-4,.867E-5,0
CORIOLIS,2003-001A,2026-06-16T18:35:07.368576,14.19944641,.0013351,98.7125,174.6654,210.0344,150.0068,0,U,27640,999,21416,.54658E-4,.73E-6,0
SORCE,2003-004A,2026-06-16T17:47:08.663136,15.03711339,.0016526,39.9906,264.2238,45.7417,314.4731,0,U,27651,999,27183,.16462E-3,.215E-4,0
MOST,2003-031D,2026-06-16T18:56:01.372992,14.21322412,.0008725,98.7045,175.5205,251.7368,108.2860,0,U,27843,999,19065,.39365E-4,.42E-6,0
SCISAT 1,2003-036A,2026-06-16T18:04:13.005120,14.81447169,.0008553,73.9284,172.2056,241.9898,118.0413,0,U,27858,999,23138,.5352E-4,.382E-5,0
SWIFT,2004-047A,2026-06-15T09:44:36.258144,15.68175033,.0001619,20.5516,198.6409,255.9834,104.0432,0,U,28485,999,18658,.35480339E-3,.42527E-3,0
HINODE (SOLAR-B),2006-041A,2026-06-16T18:38:16.556064,14.68622529,.0016028,98.0548,183.9352,291.1805,68.7687,0,U,29479,999,5481,.10069E-3,.537E-5,0
SHIJIAN-6 02A (SJ-6 02A),2006-046A,2026-06-16T21:26:55.464000,15.16938602,.0004478,97.6358,208.9576,124.8985,235.2669,0,U,29505,999,7222,.21308E-3,.4134E-4,0
SHIJIAN-6 02B (SJ-6 02B),2006-046B,2026-06-16T21:06:55.283328,15.01376266,.0015355,97.7155,196.9402,61.3669,298.9097,0,U,29506,999,7069,.81312E-4,.989E-5,0
FGRST (GLAST),2008-029A,2026-06-16T18:29:08.450880,15.23945020,.0007748,25.5803,207.3783,324.2186,35.7833,0,U,33053,999,99577,.76629E-4,.2243E-4,0
SDO,2010-005A,2026-06-16T12:13:20.690400,1.00269934,.0001708,34.6508,86.3517,44.3809,215.2958,0,U,36395,999,6005,0,-.97E-6,0
CRYOSAT 2,2010-013A,2026-06-16T20:59:38.194368,14.51899063,.0002157,92.0355,277.2255,89.4964,270.6490,0,U,36508,999,85803,.46326E-4,.19E-5,0
X-SAT,2011-015C,2026-06-16T20:59:16.711872,14.25205739,.0013931,98.3505,144.9127,349.5011,10.5876,0,U,37389,999,78763,-.98995E-5,-.64E-6,0
GCOM-W1 (SHIZUKU),2012-025A,2026-06-16T18:11:19.459104,14.57124312,.0001785,98.2021,108.3199,75.2604,344.6172,0,U,38337,999,74897,.93602E-4,.377E-5,0
NUSTAR,2012-031A,2026-06-16T22:00:01.998720,15.08797824,.0007033,6.0274,36.1555,107.6444,307.5344,0,U,38358,999,130,.39293E-3,.7228E-4,0
NEOSSAT,2013-009D,2026-06-16T18:59:36.600576,14.35826267,.0009886,98.4177,347.8334,245.1134,114.9025,0,U,39089,999,69668,.52216E-4,.108E-5,0
BRITE-AUSTRIA,2013-009F,2026-06-16T10:36:25.369056,14.36541877,.00091252,98.3994,346.8961,239.0066,121.0225,0,U,39091,999,69694,.62459944E-4,.141E-5,0
IRIS,2013-033A,2026-06-16T19:52:34.453920,14.85884720,.002357,97.9329,7.1064,323.0758,36.8833,0,U,39197,999,70032,.99442E-4,.814E-5,0
HISAKI (SPRINT-A),2013-049A,2026-06-16T20:01:15.807072,13.55544715,.0136865,29.7184,221.8078,13.9892,346.4420,0,U,39253,999,63137,.71628E-4,.116E-5,0
CASSIOPE,2013-055A,2026-06-16T20:00:59.444640,15.25158837,.029281,80.9148,67.1512,63.6252,299.4722,0,U,39265,999,66761,.46322E-3,.42418E-3,-.54295E-6
STSAT-3,2013-066G,2026-06-16T20:18:52.219872,15.02755522,.0011152,97.6221,137.7401,46.0855,314.1289,0,U,39422,999,68415,.21624E-3,.2834E-4,0
SWARM B,2013-067A,2026-06-16T19:21:22.502016,15.28549486,.0003281,87.7437,342.4321,85.8654,274.2970,0,U,39451,999,68318,.1017E-3,.2858E-4,0
